STARLINK-30270          
1 57530U 23115K   23359.42172591  .00003917  00000+0  30463-3 0  9993
2 57530  43.0039  60.1311 0000883 262.1954  97.8788 15.02562178 22290
STARLINK-30268          
1 57531U 23115L   23359.17424722  .00008822  00000+0  66687-3 0  9999
2 57531  43.0052  61.6472 0001129 251.4394 136.3135 15.02561333 22098
STARLINK-30251          
1 57532U 23115M   23359.16581342  .00016117  00000+0  12050-2 0  9991
2 57532  43.0015  61.6513 0001279 252.9312 107.1390 15.02550133 22259
STARLINK-30254          
1 57533U 23115N   23358.91667824 -.00225169  24652-4 -66891-3 0  9992
2 57533  42.9878 357.5755 0002032 241.9235 258.7816 15.91319996  6065
STARLINK-30264          
1 57534U 23115P   23359.18621246  .00013399  00000+0  69602-3 0  9998
2 57534  43.0016  49.9236 0000757 247.5305 112.5462 15.15981979 22491
STARLINK-30262          
1 57535U 23115Q   23359.40841927 -.00005113  00000+0 -36396-3 0  9995
2 57535  43.0030  60.0192 0000658 312.4286  47.6500 15.02513341 22236
STARLINK-30166          
1 57602U 23119A   23359.45667585  .00002897  00000+0  22937-3 0  9995
2 57602  43.0011 137.3854 0001271 272.4816  87.5881 15.02541287 21895
STARLINK-30223          
1 57603U 23119B   23359.43669865  .00015146  00000+0  11337-2 0  9999
2 57603  43.0014 137.2348 0001563 270.6058  89.4605 15.02540562 21944
STARLINK-30218          
1 57604U 23119C   23359.44336097  .00001332  00000+0  11367-3 0  9995
2 57604  43.0035 137.2859 0001425 280.5154  79.5528 15.02532370 21941
STARLINK-30138          
1 57605U 23119D   23359.44002036 -.00003893  00000+0 -27310-3 0  9990
2 57605  42.9971 137.2563 0000767 210.3265 149.7533 15.02558356 21941
STARLINK-30255          
1 57606U 23119E   23359.47876037  .00000705  00000+0  67239-4 0  9996
2 57606  43.0027 136.6926 0001099 275.1972  84.8745 15.02532361 21947
STARLINK-30252          
1 57607U 23119F   23358.91667824  .00036082  00000+0  26741-2 0  9995
2 57607  43.0007 127.5028 0001633 277.5439  72.7353 15.02511626  5805
STARLINK-30258          
1 57608U 23119G   23359.43004053  .00001887  00000+0  15476-3 0  9992
2 57608  43.0009 137.1846 0001165 271.2810  88.7898 15.02532495 21948
STARLINK-30174          
1 57609U 23119H   23358.82507685  .00006718  00000+0  51172-3 0  9995
2 57609  43.0012 140.3853 0001334 266.7581  93.3108 15.02547525 21866
STARLINK-30248          
1 57610U 23119J   23359.42672014  .00014863  00000+0  11120-2 0  9991
2 57610  43.0008 137.1594 0001218 274.6130  85.4573 15.02569848 21891
STARLINK-30052          
1 57611U 23119K   23359.48652388  .00000442  00000+0  47790-4 0  9992
2 57611  43.0013 136.7483 0001470 270.8960  89.1714 15.02538658 21960
STARLINK-30245          
1 57612U 23119L   23358.81841375  .00001119  00000+0  97855-4 0  9994
2 57612  43.0014 140.3352 0001280 262.6364  97.4333 15.02552084 21861
STARLINK-30041          
1 57613U 23119M   23358.88155821  .00003748  00000+0  29223-3 0  9999
2 57613  43.0020 139.9514 0000977 321.7294  38.3479 15.02553744 21863
STARLINK-30244          
1 57614U 23119N   23359.47653693  .00000494  00000+0  51641-4 0  9991
2 57614  43.0029 136.6740 0001500 263.9211  96.1460 15.02535901 21954
STARLINK-30246          
1 57615U 23119P   23359.47431634  .00000903  00000+0  81932-4 0  9992
2 57615  43.0029 136.6433 0001352 280.7575  79.3115 15.02529638 21948
STARLINK-30075          
1 57616U 23119Q   23359.46999480 -.00000113  00000+0  67320-5 0  9990
2 57616  43.0028 137.4846 0001211 261.2553  98.8152 15.02534410 21940
STARLINK-30148          
1 57617U 23119R   23359.46665896  .00015509  00000+0  11600-2 0  9993
2 57617  43.0013 137.4619 0001252 269.9386  90.1312 15.02555283 21941
STARLINK-30249          
1 57618U 23119S   23359.46333210  .00005473  00000+0  41973-3 0  9992
2 57618  43.0017 137.4355 0001322 276.3049  83.7642 15.02553062 21890
STARLINK-30141          
1 57620U 23119U   23358.78744715  .00002276  00000+0  18345-3 0  9990
2 57620  43.0030 140.9645 0001177 274.9844  85.0864 15.02547514 21856
STARLINK-30150          
1 57621U 23119V   23359.45334040  .00003949  00000+0  30714-3 0  9994
2 57621  43.0014 137.3606 0001303 275.9553  84.1140 15.02545705 21942
STARLINK-30056          
1 57622U 23119W   23359.41899562  .00000672  00000+0  66115-4 0  9991
2 57622  43.0032 137.0842 0001107 269.9866  90.0849 15.01718739 21944
STARLINK-30100          
1 57623U 23119X   23359.44668561  .00004357  00000+0  33737-3 0  9995
2 57623  43.0024 137.3082 0001336 262.3019  97.7672 15.02541301 21944
STARLINK-30309          
1 57632U 23122A   23359.48634404 -.00000221  00000+0 -12705-5 0  9994
2 57632  43.0025 150.2808 0001025 253.7317 106.3413 15.02535732 21036
STARLINK-30306          
1 57633U 23122B   23359.48301388  .00008799  00000+0  66604-3 0  9998
2 57633  43.0022 150.2552 0000873 250.2525 109.8223 15.02510603 21041
STARLINK-30323          
1 57634U 23122C   23359.16667824  .00006708  00000+0  48544-3 0  9995
2 57634  43.0009 138.6089 0001967 268.4365  85.4465 15.04491343 21149
STARLINK-30329          
1 57635U 23122D   23358.81489902  .00003778  00000+0  29449-3 0  9993
2 57635  43.0009 153.8437 0001185 284.5206  75.5505 15.02547653 20958
STARLINK-30330          
1 57636U 23122E   23359.47635539  .00001514  00000+0  12709-3 0  9993
2 57636  43.0019 150.2051 0001001 271.8357  88.2371 15.02534737 21048
STARLINK-30311          
1 57637U 23122F   23358.93787337  .00000617  00000+0  60759-4 0  9990
2 57637  43.0026 153.0461 0001112 267.8600  92.2115 15.02537686 20958
STARLINK-30328          
1 57638U 23122G   23359.58334491 -.00128131  00000+0 -96207-2 0  9991
2 57638  43.0005 136.0887 0000843 285.3226 251.1152 15.02628814 21220
STARLINK-30326          
1 57639U 23122H   23359.48955751  .00000889  00000+0  80878-4 0  9995
2 57639  43.0011 149.4447 0001376 280.3747  79.6940 15.02533736 21050
STARLINK-30324          
1 57640U 23122J   23359.46303301  .00003813  00000+0  29716-3 0  9996
2 57640  43.0009 150.1068 0001286 258.1833 101.8865 15.02539540 21037
STARLINK-30312          
1 57641U 23122K   23359.45970741  .00001618  00000+0  13486-3 0  9992
2 57641  43.0025 150.0815 0001135 287.0640  73.0078 15.02530314 21031
STARLINK-30263          
1 57642U 23122L   23359.45304779  .00000763  00000+0  71564-4 0  9997
2 57642  43.0035 150.0322 0001234 273.4452  86.6250 15.02532170 21030
STARLINK-30280          
1 57643U 23122M   23359.44308318 -.00011752  00000+0 -85681-3 0  9996
2 57643  43.0008 149.9578 0001159 284.4923  75.5791 15.02514809 21038
STARLINK-30247          
1 57644U 23122N   23359.51286478 -.00001208  00000+0 -74379-4 0  9995
2 57644  43.0029 149.6261 0001267 268.9629  91.1068 15.02541954 21041
STARLINK-30277          
1 57645U 23122P   23359.44972004  .00000406  00000+0  45141-4 0  9997
2 57645  43.0030 150.0077 0001259 267.9696  92.1002 15.02532878 21043
STARLINK-30265          
1 57646U 23122Q   23358.79159469  .00000683  00000+0  65610-4 0  9997
2 57646  43.0029 153.6689 0001165 261.6546  98.4164 15.02543939 20958
STARLINK-30286          
1 57647U 23122R   23359.50620440  .00000233  00000+0  32318-4 0  9990
2 57647  43.0025 149.5712 0001248 269.5539  90.5160 15.02534808 20995
STARLINK-30243          
1 57648U 23122S   23359.49288176  .00001041  00000+0  92076-4 0  9990
2 57648  43.0012 149.4730 0001123 265.0883  94.9831 15.02538496 21054
STARLINK-30293          
1 57649U 23122T   23359.58334491  .00245837  00000+0  60261-2 0  9995
2 57649  42.9956 125.7830 0017474 341.8462 210.5212 15.38904408 21339
STARLINK-30299          
1 57650U 23122U   23359.50287554  .00003051  00000+0  24083-3 0  9999
2 57650  43.0008 149.5448 0001454 269.4730  90.5945 15.02538146 21055
STARLINK-30294          
1 57651U 23122V   23359.44069156 -.00000776  00000+0 -27845-4 0  9992
2 57651  43.0022 138.0648 0001103 248.3002 111.7728 15.15955005 21131
STARLINK-30276          
1 57652U 23122W   23359.49621394 -.00004918  00000+0 -34902-3 0  9999
2 57652  43.0028 149.4948 0001419 278.2117  81.8565 15.02557492 21046
STARLINK-30289          
1 57653U 23122X   23359.43894980  .00000973  00000+0  82969-4 0  9999
2 57653  43.0004 137.1593 0001552 277.8308  82.2359 15.04491240 21198
STARLINK-30267          
1 57663U 23124A   23359.12501951 -.00002378  00000+0 -98020-4 0  9999
2 57663  53.0557 342.5268 0002047 114.7623 245.3584 15.18728438 20191
STARLINK-30302          
1 57664U 23124B   23359.12870336  .00031706  00000+0  15176-2 0  9990
2 57664  53.0552 343.9620 0001770  89.6597 270.4600 15.18712009 20315
STARLINK-30298          
1 57665U 23124C   23358.40700346  .00008088  00000+0  39951-3 0  9999
2 57665  53.0552 347.2804 0002317 102.4094 257.7160 15.18727620 20203
STARLINK-30301          
1 57666U 23124D   23359.26649263  .00000766  00000+0  51557-4 0  9997
2 57666  53.0572 318.8245 0001575 106.6864 253.4303 15.18743842 20672
STARLINK-30275          
1 57667U 23124E   23359.12649736  .00003700  00000+0  19124-3 0  9992
2 57667  53.0560 343.9477 0001778  74.3043 285.8148 15.18699570 19954
STARLINK-30278          
1 57668U 23124F   23359.38752647  .00027480  00000+0  13167-2 0  9998
2 57668  53.0562 342.7228 0001904  98.9291 261.1919 15.18749448 20355
STARLINK-30271          
1 57669U 23124G   23359.11991509  .00021008  00000+0  10117-2 0  9994
2 57669  53.0559 343.8983 0002860 105.5798 254.5512 15.18726319 20314
STARLINK-30322          
1 57670U 23124H   23359.16593502  .00000561  00000+0  41819-4 0  9998
2 57670  53.0555 342.7846 0001855 116.3033 243.8152 15.18738315 19984
STARLINK-30296          
1 57671U 23124J   23359.34026748  .00045976  00000+0  21860-2 0  9993
2 57671  53.0513 340.3038 0001843 110.0766 250.0426 15.18768608 20082
STARLINK-30274          
1 57672U 23124K   23359.35333378  .00057435  00000+0  27224-2 0  9998
2 57672  53.0510 342.5144 0002073  83.0798 277.0432 15.18773238 20207
